{
  "type": "FeatureCollection",
  "features": [
    {
      "type": "Feature",
      "properties": {
        "norad_id": 37238,
        "name": "INTELSAT 17 (IS-17)",
        "group": "intelsat",
        "lat": 0.0013474579547115124,
        "lon": -32.060796691750205,
        "alt_km": 35777.63553922303,
        "timestamp": "2025-12-20T11:30:28.038704+00:00",
        "meta_object_name": "INTELSAT 17 (IS-17)",
        "meta_object_id": "2010-065B",
        "meta_epoch": "2025-12-20T03:16:20.835264",
        "meta_mean_motion": 1.00270943,
        "meta_eccentricity": 0.0002702,
        "meta_inclination": 0.0002,
        "meta_ra_of_asc_node": 96.184,
        "meta_arg_of_pericenter": 191.1984,
        "meta_mean_anomaly": 276.6789,
        "meta_ephemeris_type": 0,
        "meta_classification_type": "U",
        "meta_norad_cat_id": 37238,
        "meta_element_set_no": 999,
        "meta_rev_at_epoch": 5145,
        "meta_bstar": 0,
        "meta_mean_motion_dot": 2.3e-07,
        "meta_mean_motion_ddot": 0,
        "tle_line1": "1 37238U 10065B   25354.13635226  .00000023  00000+0  00000+0 0  9995",
        "tle_line2": "2 37238   0.0002  96.1840 0002702 191.1984 276.6789  1.00270943 51455"
      },
      "geometry": {
        "type": "Point",
        "coordinates": [
          -32.060796691750205,
          0.0013474579547115124
        ]
      }
    },
    {
      "type": "Feature",
      "properties": {
        "norad_id": 37392,
        "name": "INTELSAT 28 (IS-28)",
        "group": "intelsat",
        "lat": 0.744467747463403,
        "lon": -129.79377854162448,
        "alt_km": 35774.98791720552,
        "timestamp": "2025-12-20T11:30:28.038716+00:00",
        "meta_object_name": "INTELSAT 28 (IS-28)",
        "meta_object_id": "2011-016A",
        "meta_epoch": "2025-12-20T03:15:38.761056",
        "meta_mean_motion": 1.00270022,
        "meta_eccentricity": 0.0003682,
        "meta_inclination": 1.3426,
        "meta_ra_of_asc_node": 84.9767,
        "meta_arg_of_pericenter": 187.705,
        "meta_mean_anomaly": 193.5111,
        "meta_ephemeris_type": 0,
        "meta_classification_type": "U",
        "meta_norad_cat_id": 37392,
        "meta_element_set_no": 999,
        "meta_rev_at_epoch": 5149,
        "meta_bstar": 0,
        "meta_mean_motion_dot": -2.02e-06,
        "meta_mean_motion_ddot": 0,
        "tle_line1": "1 37392U 11016A   25354.13586529 -.00000202  00000+0  00000+0 0  9994",
        "tle_line2": "2 37392   1.3426  84.9767 0003682 187.7050 193.5111  1.00270022 51494"
      },
      "geometry": {
        "type": "Point",
        "coordinates": [
          -129.79377854162448,
          0.744467747463403
        ]
      }
    },
    {
      "type": "Feature",
      "properties": {
        "norad_id": 37834,
        "name": "INTELSAT 18 (IS-18)",
        "group": "intelsat",
        "lat": 0.029323413791879745,
        "lon": 81.92748291310242,
        "alt_km": 35792.331695376175,
        "timestamp": "2025-12-20T11:30:28.038727+00:00",
        "meta_object_name": "INTELSAT 18 (IS-18)",
        "meta_object_id": "2011-056A",
        "meta_epoch": "2025-12-19T19:15:17.492256",
        "meta_mean_motion": 1.0027221,
        "meta_eccentricity": 0.00016561,
        "meta_inclination": 0.0348,
        "meta_ra_of_asc_node": 279.4074,
        "meta_arg_of_pericenter": 6.336,
        "meta_mean_anomaly": 271.7233,
        "meta_ephemeris_type": 0,
        "meta_classification_type": "U",
        "meta_norad_cat_id": 37834,
        "meta_element_set_no": 999,
        "meta_rev_at_epoch": 5201,
        "meta_bstar": 0,
        "meta_mean_motion_dot": 7.7e-07,
        "meta_mean_motion_ddot": 0,
        "tle_line1": "1 37834U 11056A   25353.80228579  .00000077  00000+0  00000+0 0  9999",
        "tle_line2": "2 37834   0.0348 279.4074 0001656   6.3360 271.7233  1.00272210 52019"
      },
      "geometry": {
        "type": "Point",
        "coordinates": [
          81.92748291310242,
          0.029323413791879745
        ]
      }
    },
    {
      "type": "Feature",
      "properties": {
        "norad_id": 38098,
        "name": "INTELSAT 22 (IS-22)",
        "group": "intelsat",
        "lat": -0.025428696463417454,
        "lon": -25.96869839435351,
        "alt_km": 35782.2300013671,
        "timestamp": "2025-12-20T11:30:28.038739+00:00",
        "meta_object_name": "INTELSAT 22 (IS-22)",
        "meta_object_id": "2012-011A",
        "meta_epoch": "2025-12-20T03:18:05.666112",
        "meta_mean_motion": 1.00270553,
        "meta_eccentricity": 0.0001812,
        "meta_inclination": 0.0147,
        "meta_ra_of_asc_node": 42.664,
        "meta_arg_of_pericenter": 234.5908,
        "meta_mean_anomaly": 293.3399,
        "meta_ephemeris_type": 0,
        "meta_classification_type": "U",
        "meta_norad_cat_id": 38098,
        "meta_element_set_no": 999,
        "meta_rev_at_epoch": 539,
        "meta_bstar": 0,
        "meta_mean_motion_dot": -3.4e-07,
        "meta_mean_motion_ddot": 0,
        "tle_line1": "1 38098U 12011A   25354.13756558 -.00000034  00000+0  00000+0 0  9998",
        "tle_line2": "2 38098   0.0147  42.6640 0001812 234.5908 293.3399  1.00270553  5395"
      },
      "geometry": {
        "type": "Point",
        "coordinates": [
          -25.96869839435351,
          -0.025428696463417454
        ]
      }
    },
    {
      "type": "Feature",
      "properties": {
        "norad_id": 38356,
        "name": "INTELSAT 19 (IS-19)",
        "group": "intelsat",
        "lat": 0.03747091986940421,
        "lon": 67.92895934649879,
        "alt_km": 35797.309080392806,
        "timestamp": "2025-12-20T11:30:28.038751+00:00",
        "meta_object_name": "INTELSAT 19 (IS-19)",
        "meta_object_id": "2012-030A",
        "meta_epoch": "2025-12-19T17:28:37.237728",
        "meta_mean_motion": 1.00271271,
        "meta_eccentricity": 0.00027409,
        "meta_inclination": 0.0115,
        "meta_ra_of_asc_node": 352.2924,
        "meta_arg_of_pericenter": 272.7431,
        "meta_mean_anomaly": 251.6929,
        "meta_ephemeris_type": 0,
        "meta_classification_type": "U",
        "meta_norad_cat_id": 38356,
        "meta_element_set_no": 999,
        "meta_rev_at_epoch": 4865,
        "meta_bstar": 0,
        "meta_mean_motion_dot": -3.2e-07,
        "meta_mean_motion_ddot": 0,
        "tle_line1": "1 38356U 12030A   25353.72820877 -.00000032  00000+0  00000+0 0  9994",
        "tle_line2": "2 38356   0.0115 352.2924 0002740 272.7431 251.6929  1.00271271 48658"
      },
      "geometry": {
        "type": "Point",
        "coordinates": [
          67.92895934649879,
          0.03747091986940421
        ]
      }
    },
    {
      "type": "Feature",
      "properties": {
        "norad_id": 38740,
        "name": "INTELSAT 20 (IS-20)",
        "group": "intelsat",
        "lat": -0.0023123272414647404,
        "lon": -29.569049034463166,
        "alt_km": 35798.37736753629,
        "timestamp": "2025-12-20T11:30:28.038763+00:00",
        "meta_object_name": "INTELSAT 20 (IS-20)",
        "meta_object_id": "2012-043A",
        "meta_epoch": "2025-12-20T03:17:05.763264",
        "meta_mean_motion": 1.00270363,
        "meta_eccentricity": 0.0003349,
        "meta_inclination": 0.0117,
        "meta_ra_of_asc_node": 103.5578,
        "meta_arg_of_pericenter": 78.8397,
        "meta_mean_anomaly": 24.344,
        "meta_ephemeris_type": 0,
        "meta_classification_type": "U",
        "meta_norad_cat_id": 38740,
        "meta_element_set_no": 999,
        "meta_rev_at_epoch": 4895,
        "meta_bstar": 0,
        "meta_mean_motion_dot": 0,
        "meta_mean_motion_ddot": 0,
        "tle_line1": "1 38740U 12043A   25354.13687226  .00000000  00000+0  00000+0 0  9994",
        "tle_line2": "2 38740   0.0117 103.5578 0003349  78.8397  24.3440  1.00270363 48958"
      },
      "geometry": {
        "type": "Point",
        "coordinates": [
          -29.569049034463166,
          -0.0023123272414647404
        ]
      }
    },
    {
      "type": "Feature",
      "properties": {
        "norad_id": 38749,
        "name": "INTELSAT 21 (IS-21)",
        "group": "intelsat",
        "lat": -0.03314618766393278,
        "lon": -156.09467552075122,
        "alt_km": 35782.41158501303,
        "timestamp": "2025-12-20T11:30:28.038775+00:00",
        "meta_object_name": "INTELSAT 21 (IS-21)",
        "meta_object_id": "2012-045A",
        "meta_epoch": "2025-12-20T03:31:38.627040",
        "meta_mean_motion": 1.00272413,
        "meta_eccentricity": 0.0001495,
        "meta_inclination": 0.0263,
        "meta_ra_of_asc_node": 288.1597,
        "meta_arg_of_pericenter": 331.7134,
        "meta_mean_anomaly": 184.0219,
        "meta_ephemeris_type": 0,
        "meta_classification_type": "U",
        "meta_norad_cat_id": 38749,
        "meta_element_set_no": 999,
        "meta_rev_at_epoch": 4873,
        "meta_bstar": 0,
        "meta_mean_motion_dot": -2.61e-06,
        "meta_mean_motion_ddot": 0,
        "tle_line1": "1 38749U 12045A   25354.14697485 -.00000261  00000+0  00000+0 0  9994",
        "tle_line2": "2 38749   0.0263 288.1597 0001495 331.7134 184.0219  1.00272413 48732"
      },
      "geometry": {
        "type": "Point",
        "coordinates": [
          -156.09467552075122,
          -0.03314618766393278
        ]
      }
    }
  ]
}